NORAD_CAT_ID,OBJECT_NAME,OBJECT_TYPE,EPOCH,MEAN_MOTION,ECCENTRICITY,INCLINATION,RA_OF_ASC_NODE,ARG_OF_PERICENTER,MEAN_ANOMALY,BSTAR,MEAN_MOTION_DOT,MEAN_MOTION_DDOT,TLE_LINE0,TLE_LINE1,TLE_LINE2,SEMIMAJOR_AXIS,PERIOD,APOGEE,PERIGEE,DECAYED
51857.0,STARLINK-3571,PAYLOAD,2022-08-02 06:00:02,15.08842916,0.0002044999999999,53.2162,164.3514,63.9049,349.5665,-0.0011717,-0.00018889,0.0,0 STARLINK-3571,1 51857U 22022F   22214.25002315 -.00018889  00000-0 -11717-2 0  9998,2 51857  53.2162 164.3514 0002045  63.9049 349.5665 15.08842916 24438,6917.871,95.437,541.151,538.322,0.0
51857.0,STARLINK-3571,PAYLOAD,2022-08-02 14:00:01,15.08830475,0.0001913,53.2159,162.8536,67.0626,357.9392,-0.0010241,-0.00016546,0.0,0 STARLINK-3571,1 51857U 22022F   22214.58334491 -.00016546  00000-0 -10241-2 0  9996,2 51857  53.2159 162.8536 0001913  67.0626 357.9392 15.08830475  1308,6917.91,95.438,541.0980000000002,538.451,0.0
51857.0,STARLINK-3571,PAYLOAD,2022-08-03 06:00:00,15.08813615,0.0002043,53.2158,159.8625,64.2366,23.9357,0.0022524999999999,0.00035717,0.0,0 STARLINK-3571,1 51857U 22022F   22215.25001157  .00035717  00000-0  22525-2 0  9998,2 51857  53.2158 159.8625 0002043  64.2366  23.9357 15.08813615 24580,6917.9609999999975,95.439,541.239,538.413,0.0
51857.0,STARLINK-3571,PAYLOAD,2022-08-03 14:00:01,15.08838138,0.0001962,53.2156,158.3645,68.3324,31.4222,-0.00042339,-7.020000000000001e-05,0.0,0 STARLINK-3571,1 51857U 22022F   22215.58334491 -.00007020  00000-0 -42339-3 0  9998,2 51857  53.2156 158.3645 0001962  68.3324  31.4222 15.08838138  1309,6917.886,95.438,541.1080000000002,538.394,0.0
51857.0,STARLINK-3571,PAYLOAD,2022-08-03 22:00:01,15.08853867,0.0002034,53.2156,156.868,70.967,40.4369,-0.00076061,-0.00012378,0.0,0 STARLINK-3571,1 51857U 22022F   22215.91668981 -.00012378  00000-0 -76061-3 0  9990,2 51857  53.2156 156.8680 0002034  70.9670  40.4369 15.08853867  1303,6917.8380000000025,95.437,541.11,538.2959999999998,0.0
51857.0,STARLINK-3571,PAYLOAD,2022-08-04 14:00:01,15.08833564,0.000194,53.2156,153.8752,68.0629,66.4907,-0.0011198,-0.00018063,0.0,0 STARLINK-3571,1 51857U 22022F   22216.58334491 -.00018063  00000-0 -11198-2 0  9996,2 51857  53.2156 153.8752 0001940  68.0629  66.4907 15.08833564  1305,6917.9,95.438,541.107,538.423,0.0
51857.0,STARLINK-3571,PAYLOAD,2022-08-04 22:00:00,15.08842714,0.0002009999999999,53.2156,152.3788,69.9844,76.1451,-0.00095237,-0.00015415,0.0,0 STARLINK-3571,1 51857U 22022F   22216.91667824 -.00015415  00000-0 -95237-3 0  9997,2 51857  53.2156 152.3788 0002010  69.9844  76.1451 15.08842714  1305,6917.871999999999,95.437,541.128,538.347,0.0
51857.0,STARLINK-3571,PAYLOAD,2022-08-05 06:00:02,15.08809294,0.0002094,53.2157,150.8839,63.472,94.3168,0.0032021,0.0005099999999999,0.0,0 STARLINK-3571,1 51857U 22022F   22217.25002315  .00051000  00000-0  32021-2 0  9992,2 51857  53.2157 150.8839 0002094  63.4720  94.3168 15.08809294 24881,6917.974,95.439,541.288,538.391,0.0
51857.0,STARLINK-3571,PAYLOAD,2022-08-05 14:00:01,15.08833996,0.0001991,53.2158,149.3858,68.6605,100.7148,0.00074789,0.00011633,0.0,0 STARLINK-3571,1 51857U 22022F   22217.58335648  .00011633  00000-0  74789-3 0  9992,2 51857  53.2158 149.3858 0001991  68.6605 100.7148 15.08833996  1308,6917.899,95.438,541.141,538.386,0.0
51857.0,STARLINK-3571,PAYLOAD,2022-08-05 22:00:00,15.08861943,0.0002068,53.216,147.8897,70.389,110.5127,-0.0010768,-0.00017395,0.0,0 STARLINK-3571,1 51857U 22022F   22217.91667824 -.00017395  00000-0 -10768-2 0  9992,2 51857  53.2160 147.8897 0002068  70.3890 110.5127 15.08861943  1308,6917.813,95.436,541.109,538.248,0.0
51857.0,STARLINK-3571,PAYLOAD,2022-08-06 14:00:01,15.08820479,0.0001932,53.2162,144.8964,68.9893,135.1291,0.0012536,0.00019709,0.0,0 STARLINK-3571,1 51857U 22022F   22218.58334491  .00019709  00000-0  12536-2 0  9991,2 51857  53.2162 144.8964 0001932  68.9893 135.1291 15.08820479  1301,6917.94,95.439,541.1419999999998,538.469,0.0
51857.0,STARLINK-3571,PAYLOAD,2022-08-06 22:00:00,15.08850989,0.0001999,53.2164,143.4006,70.3385,145.355,-0.001218,-0.00019627,0.0,0 STARLINK-3571,1 51857U 22022F   22218.91667824 -.00019627  00000-0 -12180-2 0  9993,2 51857  53.2164 143.4006 0001999  70.3385 145.3550 15.08850989  1301,6917.847,95.437,541.095,538.3290000000002,0.0
51857.0,STARLINK-3571,PAYLOAD,2022-08-07 04:59:49,15.08835623,0.0001972,53.2178,142.0916,74.2433,285.8776,6.0607e-05,6.76e-06,0.0,0 STARLINK-3571,1 51857U 22022F   22219.20821378  .00000676  00000-0  60607-4 0  9993,2 51857  53.2178 142.0916 0001972  74.2433 285.8776 15.08835623 25189,6917.894,95.438,541.123,538.395,0.0
51857.0,STARLINK-3571,PAYLOAD,2022-08-07 14:00:01,15.08812251,0.0001837,53.2165,140.4072,70.1617,168.7363,0.0013451,0.00021168,0.0,0 STARLINK-3571,1 51857U 22022F   22219.58334491  .00021168  00000-0  13451-2 0  9991,2 51857  53.2165 140.4072 0001837  70.1617 168.7363 15.08812251  1300,6917.965,95.439,541.101,538.559,0.0
51857.0,STARLINK-3571,PAYLOAD,2022-08-07 22:00:00,15.08844986,0.0001894,53.2167,138.9116,71.0457,179.4204,-0.0011682,-0.00018835,0.0,0 STARLINK-3571,1 51857U 22022F   22219.91667824 -.00018835  00000-0 -11682-2 0  9990,2 51857  53.2167 138.9116 0001894  71.0457 179.4204 15.08844986  1301,6917.865,95.437,541.04,538.42,0.0
51857.0,STARLINK-3571,PAYLOAD,2022-08-08 06:00:00,15.08824134,0.0001933,53.2164,137.4163,65.5185,196.5493,0.0030585,0.00048704,0.0,0 STARLINK-3571,1 51857U 22022F   22220.25001157  .00048704  00000-0  30585-2 0  9999,2 51857  53.2164 137.4163 0001933  65.5185 196.5493 15.08824134 25336,6917.929,95.439,541.131,538.457,0.0
51857.0,STARLINK-3571,PAYLOAD,2022-08-08 14:00:01,15.08841136,0.0001791,53.2166,135.9182,73.1081,200.6324,0.0023068,0.00036617,0.0,0 STARLINK-3571,1 51857U 22022F   22220.58335648  .00036617  00000-0  23068-2 0  9998,2 51857  53.2166 135.9182 0001791  73.1081 200.6324 15.08841136  1306,6917.877,95.437,540.981,538.503,0.0
51857.0,STARLINK-3571,PAYLOAD,2022-08-08 22:00:00,15.08876925,0.0001771,53.2167,134.4228,72.3455,212.9441,-0.002693,-0.00042936,0.0,0 STARLINK-3571,1 51857U 22022F   22220.91667824 -.00042936  00000-0 -26930-2 0  9993,2 51857  53.2167 134.4228 0001771  72.3455 212.9441 15.08876925  1306,6917.768,95.435,540.8580000000002,538.4069999999998,0.0
51857.0,STARLINK-3571,PAYLOAD,2022-08-09 14:00:01,15.08785367,0.000152,53.2165,131.4294,72.0865,236.4172,0.0020455,0.00032367,0.0,0 STARLINK-3571,1 51857U 22022F   22221.58334491  .00032367  00000-0  20455-2 0  9999,2 51857  53.2165 131.4294 0001520  72.0865 236.4172 15.08785367  1309,6918.047,95.441,540.964,538.861,0.0
51857.0,STARLINK-3571,PAYLOAD,2022-08-09 22:00:00,15.0882164,0.000157,53.2166,129.9342,70.1768,249.868,-0.0012802999999999,-0.00020596,0.0,0 STARLINK-3571,1 51857U 22022F   22221.91667824 -.00020596  00000-0 -12803-2 0  9996,2 51857  53.2166 129.9342 0001570  70.1768 249.8680 15.08821640  1309,6917.937,95.439,540.888,538.715,0.0
51857.0,STARLINK-3571,PAYLOAD,2022-08-10 06:00:00,15.08806462,0.0001607,53.2162,128.4387,63.9824,267.6273,0.00183,0.0002893,0.0,0 STARLINK-3571,1 51857U 22022F   22222.25001157  .00028930  00000-0  18300-2 0  9991,2 51857  53.2162 128.4387 0001607  63.9824 267.6273 15.08806462 25635,6917.983,95.44,540.96,538.736,0.0
51857.0,STARLINK-3571,PAYLOAD,2022-08-10 14:00:01,15.08798664,0.0001538,53.2163,126.9408,73.0933,270.093,0.0032397,0.00051591,0.0,0 STARLINK-3571,1 51857U 22022F   22222.58334491  .00051591  00000-0  32397-2 0  9998,2 51857  53.2163 126.9408 0001538  73.0933 270.0930 15.08798664  1309,6918.007,95.44,540.936,538.808,0.0
51857.0,STARLINK-3571,PAYLOAD,2022-08-10 22:00:00,15.08842349,0.0001644,53.2165,125.4457,70.2478,284.5001,-0.0014263,-0.00022917,0.0,0 STARLINK-3571,1 51857U 22022F   22222.91667824 -.00022917  00000-0 -14263-2 0  9998,2 51857  53.2165 125.4457 0001644  70.2478 284.5001 15.08842349  1309,6917.873000000001,95.437,540.876,538.601,0.0
51857.0,STARLINK-3571,PAYLOAD,2022-08-11 14:00:01,15.088174100000002,0.0001597,53.2163,122.4518,73.3061,304.63,0.0033671,0.00053675,0.0,0 STARLINK-3571,1 51857U 22022F   22223.58334491  .00053675  00000-0  33671-2 0  9990,2 51857  53.2163 122.4518 0001597  73.3061 304.6300 15.08817410  1308,6917.949000000001,95.439,540.919,538.71,0.0
51857.0,STARLINK-3571,PAYLOAD,2022-08-11 22:00:00,15.08864841,0.0001706999999999,53.2164,120.9568,69.6671,319.8572,-0.0016063,-0.00025779,0.0,0 STARLINK-3571,1 51857U 22022F   22223.91667824 -.00025779  00000-0 -16063-2 0  9998,2 51857  53.2164 120.9568 0001707  69.6671 319.8572 15.08864841 25894,6917.804,95.436,540.85,538.489,0.0
51857.0,STARLINK-3571,PAYLOAD,2022-08-12 14:00:01,15.08820654,0.0001531999999999,53.2164,117.9626,71.6404,341.1211,0.003604,0.00057507,0.0,0 STARLINK-3571,1 51857U 22022F   22224.58334491  .00057507  00000-0  36040-2 0  9992,2 51857  53.2164 117.9626 0001532  71.6404 341.1211 15.08820654  1300,6917.94,95.439,540.864,538.745,0.0
51857.0,STARLINK-3571,PAYLOAD,2022-08-12 22:00:01,15.08874722,0.0001626,53.2165,116.4675,66.9523,357.4623,-0.0044195,-0.00070008,0.0,0 STARLINK-3571,1 51857U 22022F   22224.91668981 -.00070008  00000-0 -44195-2 0  9996,2 51857  53.2165 116.4675 0001626  66.9523 357.4623 15.08874722  1304,6917.774,95.435,540.764,538.514,0.0
51857.0,STARLINK-3571,PAYLOAD,2022-08-13 06:00:02,15.08846356,0.000155,53.2164,114.9713,60.3609,15.6559,-0.0023179,-0.00036995,0.0,0 STARLINK-3571,1 51857U 22022F   22225.25002315 -.00036995  00000-0 -23179-2 0  9993,2 51857  53.2164 114.9713 0001550  60.3609  15.6559 15.08846356 26094,6917.861,95.437,540.798,538.654,0.0
51857.0,STARLINK-3571,PAYLOAD,2022-08-13 14:00:01,15.08789226,0.0001391,53.2166,113.4733,68.8188,18.7324,0.0031921999999999,0.00050811,0.0,0 STARLINK-3571,1 51857U 22022F   22225.58334491  .00050811  00000-0  31922-2 0  9998,2 51857  53.2166 113.4733 0001391  68.8188  18.7324 15.08789226  1303,6918.036,95.441,540.863,538.938,0.0
